NORAD_CAT_ID,OBJECT_NAME,OBJECT_TYPE,EPOCH,MEAN_MOTION,ECCENTRICITY,INCLINATION,RA_OF_ASC_NODE,ARG_OF_PERICENTER,MEAN_ANOMALY,BSTAR,MEAN_MOTION_DOT,MEAN_MOTION_DDOT,TLE_LINE0,TLE_LINE1,TLE_LINE2,SEMIMAJOR_AXIS,PERIOD,APOGEE,PERIGEE,DECAYED
52861.0,STARLINK-4112,PAYLOAD,2022-10-22 22:00:00,15.08841217,0.0001715,53.2172,162.7361,51.933,194.0419,0.0001991,2.882e-05,0.0,0 STARLINK-4112,1 52861U 22062AH  22295.91667824  .00002882  00000-0  19910-3 0  9990,2 52861  53.2172 162.7361 0001715  51.9330 194.0419 15.08841217  1304,6917.877,95.437,540.928,538.555,0.0
52861.0,STARLINK-4112,PAYLOAD,2022-10-23 00:00:02,15.08830777,0.0001746,53.2173,162.3623,51.2235,287.7161,0.0019874,0.00031475,0.0,0 STARLINK-4112,1 52861U 22062AH  22296.00002315  .00031475  00000-0  19874-2 0  9997,2 52861  53.2173 162.3623 0001746  51.2235 287.7161 15.08830777 20172,6917.909000000002,95.438,540.981,538.566,0.0
52861.0,STARLINK-4112,PAYLOAD,2022-10-23 14:00:01,15.08841727,0.0001527,53.2167,159.7416,57.7339,211.4616,0.00042953,6.555e-05,0.0,0 STARLINK-4112,1 52861U 22062AH  22296.58334491  .00006555  00000-0  42953-3 0  9999,2 52861  53.2167 159.7416 0001527  57.7339 211.4616 15.08841727  1308,6917.875,95.437,540.7959999999998,538.684,0.0
52861.0,STARLINK-4112,PAYLOAD,2022-10-23 22:00:00,15.08850343,0.0001710999999999,53.2165,158.2471,52.2884,228.5073,-0.0018824999999999,-0.00030132,0.0,0 STARLINK-4112,1 52861U 22062AH  22296.91667824 -.00030132  00000-0 -18825-2 0  9995,2 52861  53.2165 158.2471 0001711  52.2884 228.5073 15.08850343 20313,6917.849,95.437,540.8969999999998,538.53,0.0
52861.0,STARLINK-4112,PAYLOAD,2022-10-24 14:00:01,15.08765442,0.000179,53.216,155.2526,62.6835,241.2714,0.0041322,0.00065957,0.0,0 STARLINK-4112,1 52861U 22062AH  22297.58334491  .00065957  00000-0  41322-2 0  9999,2 52861  53.2160 155.2526 0001790  62.6835 241.2714 15.08765442  1301,6918.108,95.442,541.212,538.735,0.0
52861.0,STARLINK-4112,PAYLOAD,2022-10-24 22:00:00,15.08810202,0.0001885999999999,53.2158,153.7581,55.698,259.7895,0.00077606,0.00012075,0.0,0 STARLINK-4112,1 52861U 22062AH  22297.91667824  .00012075  00000-0  77606-3 0  9993,2 52861  53.2158 153.7581 0001886  55.6980 259.7895 15.08810202  1300,6917.971,95.439,541.141,538.5319999999998,0.0
52861.0,STARLINK-4112,PAYLOAD,2022-10-25 00:00:00,15.08801767,0.0001878,53.2159,153.3843,54.5798,353.8009,0.0023434999999999,0.00037167,0.0,0 STARLINK-4112,1 52861U 22062AH  22298.00001157  .00037167  00000-0  23435-2 0  9994,2 52861  53.2159 153.3843 0001878  54.5798 353.8009 15.08801767 20472,6917.996999999999,95.44,541.161,538.563,0.0
52861.0,STARLINK-4112,PAYLOAD,2022-10-25 14:00:01,15.08819192,0.0001799,53.2157,150.7635,61.9258,276.7011,0.0017783,0.00028111,0.0,0 STARLINK-4112,1 52861U 22062AH  22298.58334491  .00028111  00000-0  17783-2 0  9995,2 52861  53.2157 150.7635 0001799  61.9258 276.7011 15.08819192 20562,6917.944,95.439,541.054,538.564,0.0
52861.0,STARLINK-4112,PAYLOAD,2022-10-25 22:00:01,15.08826628,0.0001975,53.2156,149.2688,56.0112,294.2637,0.00043901,6.703e-05,0.0,0 STARLINK-4112,1 52861U 22062AH  22298.91668981  .00006703  00000-0  43901-3 0  9991,2 52861  53.2156 149.2688 0001975  56.0112 294.2637 15.08826628  1304,6917.920999999999,95.438,541.153,538.42,0.0
52861.0,STARLINK-4112,PAYLOAD,2022-10-26 08:00:01,15.08838171,0.0001853,53.2157,147.3968,58.5746,36.1848,3.0018e-06,-2.4e-06,0.0,0 STARLINK-4112,1 52861U 22062AH  22299.33335648 -.00000240  00000-0  30018-5 0  9997,2 52861  53.2157 147.3968 0001853  58.5746  36.1848 15.08838171 20674,6917.886,95.438,541.033,538.469,0.0
52861.0,STARLINK-4112,PAYLOAD,2022-10-26 14:00:01,15.08839068,0.0001883,53.2157,146.2742,62.0457,311.3437,0.0015487,0.00024445,0.0,0 STARLINK-4112,1 52861U 22062AH  22299.58334491  .00024445  00000-0  15487-2 0  9991,2 52861  53.2157 146.2742 0001883  62.0457 311.3437 15.08839068  1301,6917.8830000000025,95.438,541.0509999999998,538.446,0.0
52861.0,STARLINK-4112,PAYLOAD,2022-10-26 22:00:00,15.08839085,0.0002061999999999,53.2158,144.7795,56.5804,328.4119,0.00067718,0.00010505,0.0,0 STARLINK-4112,1 52861U 22062AH  22299.91667824  .00010505  00000-0  67718-3 0  9994,2 52861  53.2158 144.7795 0002062  56.5804 328.4119 15.08839085  1302,6917.8830000000025,95.438,541.175,538.322,0.0
52861.0,STARLINK-4112,PAYLOAD,2022-10-27 14:00:01,15.08860431,0.0001932,53.2161,141.7847,62.2193,346.0506,0.00080108,0.00012491,0.0,0 STARLINK-4112,1 52861U 22062AH  22300.58335648  .00012491  00000-0  80108-3 0  9990,2 52861  53.2161 141.7847 0001932  62.2193 346.0506 15.08860431  1306,6917.818,95.436,541.019,538.346,0.0
52861.0,STARLINK-4112,PAYLOAD,2022-10-27 22:00:00,15.08854273,0.0002041999999999,53.2162,140.29,55.9285,3.9077,-0.0013158,-0.00021177,0.0,0 STARLINK-4112,1 52861U 22062AH  22300.91667824 -.00021177  00000-0 -13158-2 0  9994,2 52861  53.2162 140.2900 0002042  55.9285   3.9077 15.08854273  1304,6917.837,95.437,541.114,538.289,0.0
52861.0,STARLINK-4112,PAYLOAD,2022-10-28 08:00:01,15.08844953,0.0001819,53.2165,138.4179,58.1872,106.226,5.3051e-05,5.56e-06,0.0,0 STARLINK-4112,1 52861U 22062AH  22301.33335648  .00000556  00000-0  53051-4 0  9991,2 52861  53.2165 138.4179 0001819  58.1872 106.2260 15.08844953 20982,6917.865,95.437,540.989,538.472,0.0
52861.0,STARLINK-4112,PAYLOAD,2022-10-28 14:00:01,15.08852983,0.0001811999999999,53.2167,137.2954,60.8111,22.2987,-0.0017881,-0.00028643,0.0,0 STARLINK-4112,1 52861U 22062AH  22301.58335648 -.00028643  00000-0 -17881-2 0  9996,2 52861  53.2167 137.2954 0001812  60.8111  22.2987 15.08852983  1301,6917.840999999999,95.437,540.9590000000002,538.452,0.0
52861.0,STARLINK-4112,PAYLOAD,2022-10-28 22:00:01,15.08815818,0.0001916999999999,53.2167,135.8007,53.9939,40.7178,0.0014709,0.00023184,0.0,0 STARLINK-4112,1 52861U 22062AH  22301.91668981  .00023184  00000-0  14709-2 0  9991,2 52861  53.2167 135.8007 0001917  53.9939  40.7178 15.08815818  1304,6917.954000000002,95.439,541.145,538.493,0.0
52861.0,STARLINK-4112,PAYLOAD,2022-10-28 23:42:07,15.08846407,0.0001553,53.22,135.4778,129.5604,350.497,0.0001,1.304e-05,0.0,0 STARLINK-4112,1 52861U 22062AH  22301.98758833  .00001304  00000-0  10000-3 0  9995,2 52861  53.2200 135.4778 0001553 129.5604 350.4970 15.08846407 21073,6917.861,95.437,540.8,538.651,0.0
52861.0,STARLINK-4112,PAYLOAD,2022-10-29 10:00:00,15.08818072,0.0001738,53.2167,133.5544,59.7822,232.2554,0.0033249,0.00052994,0.0,0 STARLINK-4112,1 52861U 22062AH  22302.41667824  .00052994  00000-0  33249-2 0  9993,2 52861  53.2167 133.5544 0001738  59.7822 232.2554 15.08818072 21146,6917.946999999999,95.439,541.015,538.61,0.0
52861.0,STARLINK-4112,PAYLOAD,2022-10-29 22:00:01,15.08842072,0.0001878,53.217,131.3118,53.7605,75.7402,0.0010185,0.0001595999999999,0.0,0 STARLINK-4112,1 52861U 22062AH  22302.91668981  .00015960  00000-0  10185-2 0  9999,2 52861  53.2170 131.3118 0001878  53.7605  75.7402 15.08842072  1306,6917.874,95.437,541.038,538.44,0.0
52861.0,STARLINK-4112,PAYLOAD,2022-10-30 00:00:00,15.0884545,0.0001851999999999,53.2168,130.9377,52.6499,169.6888,0.00057066,8.807e-05,0.0,0 STARLINK-4112,1 52861U 22062AH  22303.00001157  .00008807  00000-0  57066-3 0  9998,2 52861  53.2168 130.9377 0001852  52.6499 169.6888 15.08845450 21234,6917.864000000001,95.437,541.01,538.448,0.0
52861.0,STARLINK-4112,PAYLOAD,2022-10-30 14:00:01,15.08856988,0.0001628,53.2171,128.3177,59.6185,93.0,-0.003169,-0.00050394,0.0,0 STARLINK-4112,1 52861U 22062AH  22303.58334491 -.00050394  00000-0 -31690-2 0  9995,2 52861  53.2171 128.3177 0001628  59.6185  93.0000 15.08856988  1307,6917.828,95.436,540.82,538.567,0.0
52861.0,STARLINK-4112,PAYLOAD,2022-10-30 22:00:01,15.08793925,0.0001712,53.2169,126.823,50.8234,113.4602,0.0025023,0.00039711,0.0,0 STARLINK-4112,1 52861U 22062AH  22303.91668981  .00039711  00000-0  25023-2 0  9997,2 52861  53.2169 126.8230 0001712  50.8234 113.4602 15.08793925  1305,6918.021,95.44,541.071,538.702,0.0
52861.0,STARLINK-4112,PAYLOAD,2022-10-31 14:00:01,15.08835244,0.0001604,53.2169,123.8292,59.1683,128.1753,-0.00073906,-0.00012029,0.0,0 STARLINK-4112,1 52861U 22062AH  22304.58334491 -.00012029  00000-0 -73906-3 0  9996,2 52861  53.2169 123.8292 0001604  59.1683 128.1753 15.08835244  1301,6917.895,95.438,540.87,538.65,0.0
52861.0,STARLINK-4112,PAYLOAD,2022-10-31 22:00:01,15.08806732,0.0001748,53.2167,122.3343,51.3054,147.6924,0.0029295,0.00046601,0.0,0 STARLINK-4112,1 52861U 22062AH  22304.91668981  .00046601  00000-0  29295-2 0  9999,2 52861  53.2167 122.3343 0001748  51.3054 147.6924 15.08806732  1301,6917.982,95.44,541.056,538.638,0.0
52861.0,STARLINK-4112,PAYLOAD,2022-11-01 00:00:02,15.08819978,0.0001723,53.2163,121.9601,50.6628,241.2246,0.0018227,0.00028824,0.0,0 STARLINK-4112,1 52861U 22062AH  22305.00002315  .00028824  00000-0  18227-2 0  9993,2 52861  53.2163 121.9601 0001723  50.6628 241.2246 15.08819978 21532,6917.941999999999,95.439,540.999,538.615,0.0
52861.0,STARLINK-4112,PAYLOAD,2022-11-01 14:00:01,15.08853799,0.000167,53.2166,119.3404,58.8096,163.2888,-0.00088811,-0.000144,0.0,0 STARLINK-4112,1 52861U 22062AH  22305.58334491 -.00014400  00000-0 -88811-3 0  9993,2 52861  53.2166 119.3404 0001670  58.8096 163.2888 15.08853799  1304,6917.8380000000025,95.437,540.8580000000002,538.548,0.0
52861.0,STARLINK-4112,PAYLOAD,2022-11-01 22:00:00,15.08825966,0.0001794,53.2166,117.8454,50.8606,182.8496,0.0027118,0.00043118,0.0,0 STARLINK-4112,1 52861U 22062AH  22305.91667824  .00043118  00000-0  27118-2 0  9997,2 52861  53.2166 117.8454 0001794  50.8606 182.8496 15.08825966 21677,6917.9230000000025,95.438,541.029,538.547,0.0
52861.0,STARLINK-4112,PAYLOAD,2022-11-02 14:00:01,15.08845683,0.0001633,53.2168,114.8512,56.1552,200.7404,-0.00097358,-0.00015752,0.0,0 STARLINK-4112,1 52861U 22062AH  22306.58334491 -.00015752  00000-0 -97358-3 0  9991,2 52861  53.2168 114.8512 0001633  56.1552 200.7404 15.08845683 21770,6917.863,95.437,540.8580000000002,538.5980000000002,0.0
